[Satellite]
VERSION=1.1
NAME=IRIDIUM 13 [+]
NICKNAME=IRIDIUM 13 [+]
TLE1=1 24840U 97030E   17185.99293709 -.00000005  00000-0 -80408-5 0  9999
TLE2=2 24840  86.4236 342.7677 0002248  98.6671 261.4782 14.38685826 49507
